NORAD_CAT_ID,OBJECT_NAME,OBJECT_TYPE,EPOCH,MEAN_MOTION,ECCENTRICITY,INCLINATION,RA_OF_ASC_NODE,ARG_OF_PERICENTER,MEAN_ANOMALY,BSTAR,MEAN_MOTION_DOT,MEAN_MOTION_DDOT,TLE_LINE0,TLE_LINE1,TLE_LINE2,SEMIMAJOR_AXIS,PERIOD,APOGEE,PERIGEE,DECAYED
56461.0,STARLINK-6037,PAYLOAD,2024-05-18 22:12:44,14.98362286,0.000325,70.0025,7.7988,275.9162,84.1627,0.0017144,0.0002044,0.0,0 STARLINK-6037,1 56461U 23064P   24139.92551010  .00020440  00000-0  17144-2 0  9998,2 56461  70.0025   7.7988 0003250 275.9162  84.1627 14.98362286 56423,6950.093,96.105,574.217,569.699,0.0
56461.0,STARLINK-6037,PAYLOAD,2024-05-19 14:14:04,14.98332984,0.0003307,70.0029,6.1165,269.4471,90.6309,0.00054751,6.446e-05,0.0,0 STARLINK-6037,1 56461U 23064P   24140.59311162  .00006446  00000-0  54751-3 0  9991,2 56461  70.0029   6.1165 0003307 269.4471  90.6309 14.98332984 56523,6950.184,96.107,574.347,569.75,0.0
56461.0,STARLINK-6037,PAYLOAD,2024-05-19 19:02:29,14.98329774,0.0003586,70.0024,5.6118,275.8336,84.2415,7.7994e-05,8.38e-06,0.0,0 STARLINK-6037,1 56461U 23064P   24140.79339322  .00000838  00000-0  77994-4 0  9995,2 56461  70.0024   5.6118 0003586 275.8336  84.2415 14.98329774 56913,6950.194,96.107,574.551,569.566,0.0
56461.0,STARLINK-6037,PAYLOAD,2024-05-20 01:27:01,14.98327202,0.0003179,70.0026,4.9383,269.5739,90.5055,0.00032508,3.788e-05,0.0,0 STARLINK-6037,1 56461U 23064P   24141.06043578  .00003788  00000-0  32508-3 0  9999,2 56461  70.0026   4.9383 0003179 269.5739  90.5055 14.98327202 56594,6950.202,96.107,574.276,569.857,0.0
56461.0,STARLINK-6037,PAYLOAD,2024-05-20 20:40:38,14.98339475,0.0003374,70.0021,2.9187,266.0717,94.0056,0.00088687,0.00010508,0.0,0 STARLINK-6037,1 56461U 23064P   24141.86155517  .00010508  00000-0  88687-3 0  9991,2 56461  70.0021   2.9187 0003374 266.0717  94.0056 14.98339475 57073,6950.164,96.106,574.374,569.684,0.0
56461.0,STARLINK-6037,PAYLOAD,2024-05-20 23:52:54,14.98347238,0.0003358,70.002,2.5819,265.0767,95.0009,0.0011511,0.00013675,0.0,0 STARLINK-6037,1 56461U 23064P   24141.99507310  .00013675  00000-0  11511-2 0  9996,2 56461  70.0020   2.5819 0003358 265.0767  95.0009 14.98347238 56733,6950.14,96.106,574.338,569.671,0.0
56461.0,STARLINK-6037,PAYLOAD,2024-05-21 20:42:39,14.9833654,0.0002957,70.0026,0.3948,259.0821,101.0005,0.00022271,2.566e-05,0.0,0 STARLINK-6037,1 56461U 23064P   24142.86295324  .00002566  00000-0  22271-3 0  9995,2 56461  70.0026   0.3948 0002957 259.0821 101.0005 14.98336540 57229,6950.173,96.107,574.093,569.983,0.0
56461.0,STARLINK-6037,PAYLOAD,2024-05-21 22:18:47,14.98334344,0.0002995,70.0025,0.2264,260.0448,100.0373,0.0001392,1.568e-05,0.0,0 STARLINK-6037,1 56461U 23064P   24142.92971381  .00001568  00000-0  13920-3 0  9998,2 56461  70.0025   0.2264 0002995 260.0448 100.0373 14.98334344 56874,6950.179,96.107,574.126,569.963,0.0
56461.0,STARLINK-6037,PAYLOAD,2024-05-21 23:54:55,14.98334994,0.0003071,70.0021,0.0576,266.7445,93.3362,0.00021809,2.511e-05,0.0,0 STARLINK-6037,1 56461U 23064P   24142.99647455  .00002511  00000-0  21809-3 0  9991,2 56461  70.0021   0.0576 0003071 266.7445  93.3362 14.98334994 56884,6950.177,96.107,574.177,569.908,0.0
56461.0,STARLINK-6037,PAYLOAD,2024-05-22 20:44:40,14.98335593,0.0003133,70.0019,357.8697,263.9867,96.0935,0.00015485,1.755e-05,0.0,0 STARLINK-6037,1 56461U 23064P   24143.86435301  .00001755  00000-0  15485-3 0  9995,2 56461  70.0019 357.8697 0003133 263.9867  96.0935 14.98335593 57371,6950.176,96.107,574.218,569.863,0.0
56461.0,STARLINK-6037,PAYLOAD,2024-05-23 14:22:08,14.98333982,0.0003016,70.0019,356.0173,268.4248,91.6566,0.0001764,2.013e-05,0.0,0 STARLINK-6037,1 56461U 23064P   24144.59871280  .00002013  00000-0  17640-3 0  9999,2 56461  70.0019 356.0173 0003016 268.4248  91.6566 14.98333982 57128,6950.181,96.107,574.142,569.949,0.0
56461.0,STARLINK-6037,PAYLOAD,2024-05-23 20:46:41,14.9833421,0.0003032,70.0016,355.3443,268.6015,91.4796,0.0001668,1.898e-05,0.0,0 STARLINK-6037,1 56461U 23064P   24144.86575255  .00001898  00000-0  16680-3 0  9995,2 56461  70.0016 355.3443 0003032 268.6015  91.4796 14.98334210 57161,6950.18,96.107,574.152,569.938,0.0
56461.0,STARLINK-6037,PAYLOAD,2024-05-23 23:58:57,14.98335521,0.0003025,70.0016,355.0078,268.8087,91.2726,0.00017827,2.035e-05,0.0,0 STARLINK-6037,1 56461U 23064P   24144.99927161  .00002035  00000-0  17827-3 0  9994,2 56461  70.0016 355.0078 0003025 268.8087  91.2726 14.98335521 57544,6950.176,96.107,574.143,569.938,0.0
56461.0,STARLINK-6037,PAYLOAD,2024-05-24 14:24:09,14.98332147,0.0003054,70.0032,353.4921,260.6021,99.4793,5.3697e-05,5.48e-06,0.0,0 STARLINK-6037,1 56461U 23064P   24145.60011213  .00000548  00000-0  53697-4 0  9998,2 56461  70.0032 353.4921 0003054 260.6021  99.4793 14.98332147 57276,6950.186,96.107,574.174,569.929,0.0
56461.0,STARLINK-6037,PAYLOAD,2024-05-24 22:24:49,14.98339259,0.0003105,70.0015,352.6507,263.9079,96.1726,0.00014763,1.669e-05,0.0,0 STARLINK-6037,1 56461U 23064P   24145.93390768  .00001669  00000-0  14763-3 0  9994,2 56461  70.0015 352.6507 0003105 263.9079  96.1726 14.98339259 57321,6950.164,96.106,574.187,569.871,0.0
56461.0,STARLINK-6037,PAYLOAD,2024-05-25 00:01:02,14.98231349,0.0002853,70.0018,352.4832,264.2017,95.8817,-0.0019824,-0.00023607,0.0,0 STARLINK-6037,1 56461U 23064P   24146.00072030 -.00023607  00000-0 -19824-2 0  9992,2 56461  70.0018 352.4832 0002853 264.2017  95.8817 14.98231349 57696,6950.498,96.113,574.346,570.38,0.0
56461.0,STARLINK-6037,PAYLOAD,2024-05-25 11:13:54,14.98321536,0.0003654,70.0011,351.3026,264.6441,95.4301,-0.00011834,-1.505e-05,0.0,0 STARLINK-6037,1 56461U 23064P   24146.46799433 -.00001505  00000-0 -11834-3 0  9992,2 56461  70.0011 351.3026 0003654 264.6441  95.4301 14.98321536 57767,6950.219,96.108,574.624,569.544,0.0
56461.0,STARLINK-6037,PAYLOAD,2024-05-25 14:26:10,14.9833196,0.0003386,70.0012,350.9659,267.6578,92.4193,0.00014632,1.653e-05,0.0,0 STARLINK-6037,1 56461U 23064P   24146.60151032  .00001653  00000-0  14632-3 0  9996,2 56461  70.0012 350.9659 0003386 267.6578  92.4193 14.98331960 57422,6950.187,96.107,574.405,569.698,0.0
56461.0,STARLINK-6037,PAYLOAD,2024-05-25 20:50:42,14.98331911,0.0003056,70.0017,350.2947,262.737,97.3441,7.0762e-05,7.51e-06,0.0,0 STARLINK-6037,1 56461U 23064P   24146.86855121  .00000751  00000-0  70762-4 0  9999,2 56461  70.0017 350.2947 0003056 262.7370  97.3441 14.98331911 57820,6950.187,96.107,574.176,569.928,0.0
56461.0,STARLINK-6037,PAYLOAD,2024-05-26 14:28:12,14.98311371,0.0003594,70.0011,348.4412,268.8303,91.2444,0.00087244,0.00010327,0.0,0 STARLINK-6037,1 56461U 23064P   24147.60291951  .00010327  00000-0  87244-3 0  9999,2 56461  70.0011 348.4412 0003594 268.8303  91.2444 14.98311371 57576,6950.251,96.108,574.613,569.618,0.0
56461.0,STARLINK-6037,PAYLOAD,2024-05-26 20:52:44,14.98316729,0.000391,69.9998,347.7686,270.7646,89.3065,0.00053542,6.299e-05,0.0,0 STARLINK-6037,1 56461U 23064P   24147.86995516  .00006299  00000-0  53542-3 0  9992,2 56461  69.9998 347.7686 0003910 270.7646  89.3065 14.98316729 57979,6950.234,96.108,574.816,569.381,0.0
56461.0,STARLINK-6037,PAYLOAD,2024-05-26 22:28:52,14.98306883,0.0003821,69.9996,347.5995,269.5191,90.5531,0.00084148,9.956e-05,0.0,0 STARLINK-6037,1 56461U 23064P   24147.93671851  .00009956  00000-0  84148-3 0  9992,2 56461  69.9996 347.5995 0003821 269.5191  90.5531 14.98306883 57624,6950.264,96.108,574.785,569.474,0.0
56461.0,STARLINK-6037,PAYLOAD,2024-05-27 14:30:13,14.98300456,0.0003109,70.0001,345.9167,262.9496,97.131,0.00071599,8.454e-05,0.0,0 STARLINK-6037,1 56461U 23064P   24148.60431868  .00008454  00000-0  71599-3 0  9997,2 56461  70.0001 345.9167 0003109 262.9496  97.1310 14.98300456 57720,6950.284,96.109,574.31,569.988,0.0
56461.0,STARLINK-6037,PAYLOAD,2024-05-27 20:54:44,14.98331021,0.0003054,70.0001,345.2433,267.2461,92.8349,0.0001142,1.27e-05,0.0,0 STARLINK-6037,1 56461U 23064P   24148.87135079  .00001270  00000-0  11420-3 0  9997,2 56461  70.0001 345.2433 0003054 267.2461  92.8349 14.98331021 58129,6950.19,96.107,574.177,569.932,0.0
56461.0,STARLINK-6037,PAYLOAD,2024-05-27 22:30:52,14.98331282,0.0003059,70.0,345.075,267.5153,92.5656,0.00011325,1.259e-05,0.0,0 STARLINK-6037,1 56461U 23064P   24148.93811057  .00001259  00000-0  11325-3 0  9992,2 56461  70.0000 345.0750 0003059 267.5153  92.5656 14.98331282 57771,6950.189,96.107,574.18,569.928,0.0
56461.0,STARLINK-6037,PAYLOAD,2024-05-28 14:32:13,14.98333088,0.0003034,70.0,343.3922,267.0898,92.9913,7.229e-05,7.7e-06,0.0,0 STARLINK-6037,1 56461U 23064P   24149.60570922  .00000770  00000-0  72290-4 0  9996,2 56461  70.0000 343.3922 0003034 267.0898  92.9913 14.98333088 57874,6950.183,96.107,574.157,569.94,0.0
56461.0,STARLINK-6037,PAYLOAD,2024-05-28 22:32:53,14.98334292,0.0003045,70.0,342.5504,267.3735,92.7075,6.8805e-05,7.28e-06,0.0,0 STARLINK-6037,1 56461U 23064P   24149.93950733  .00000728  00000-0  68805-4 0  9994,2 56461  70.0000 342.5504 0003045 267.3735  92.7075 14.98334292 57927,6950.18,96.107,574.161,569.928,0.0
56461.0,STARLINK-6037,PAYLOAD,2024-05-29 14:34:14,14.98331419,0.0003008,70.0,340.867,266.3599,93.7216,7.0507e-05,7.48e-06,0.0,0 STARLINK-6037,1 56461U 23064P   24150.60710855  .00000748  00000-0  70507-4 0  9993,2 56461  70.0000 340.8670 0003008 266.3599  93.7216 14.98331419 58026,6950.189,96.107,574.144,569.963,0.0
56461.0,STARLINK-6037,PAYLOAD,2024-05-29 22:34:54,14.98333959,0.0002992,70.0001,340.0257,266.4489,93.6328,9.3257e-05,1.02e-05,0.0,0 STARLINK-6037,1 56461U 23064P   24150.94090664  .00001020  00000-0  93257-4 0  9990,2 56461  70.0001 340.0257 0002992 266.4489  93.6328 14.98333959 58079,6950.181,96.107,574.125,569.966,0.0
56461.0,STARLINK-6037,PAYLOAD,2024-05-30 14:36:14,14.98336235,0.0002988,70.0001,338.3426,266.4091,93.6726,0.00010584,1.17e-05,0.0,0 STARLINK-6037,1 56461U 23064P   24151.60850429  .00001170  00000-0  10584-3 0  9994,2 56461  70.0001 338.3426 0002988 266.4091  93.6726 14.98336235 58174,6950.174,96.107,574.115,569.962,0.0
